[{"icaoId":"KBWI","receiptTime":"2025-09-27T01:58:15.252Z","obsTime":1758938040,"reportTime":"2025-09-27T02:00:00.000Z","temp":20.6,"dewp":18.3,"wdir":0,"wspd":0,"visib":"10+","altim":1013,"slp":1012.8,"qcField":12,"metarType":"METAR","rawOb":"METAR KBWI 270154Z 00000KT 10SM BKN250 21/18 A2991 RMK AO2 SLP128 T02060183 $","lat":39.1733,"lon":-76.684,"elev":42,"name":"Baltimore-Washington Intl, MD, US","cover":"BKN","clouds":[{"cover":"BKN","base":25000}],"fltCat":"VFR"},{"icaoId":"KBWI","receiptTime":"2025-09-27T00:58:17.966Z","obsTime":1758934440,"reportTime":"2025-09-27T01:00:00.000Z","temp":22.8,"dewp":17.8,"wdir":180,"wspd":3,"visib":"10+","altim":1012.6,"slp":1012.3,"qcField":12,"metarType":"METAR","rawOb":"METAR KBWI 270054Z 18003KT 10SM BKN250 23/18 A2990 RMK AO2 SLP123 T02280178 $","lat":39.1733,"lon":-76.684,"elev":42,"name":"Baltimore-Washington Intl, MD, US","cover":"BKN","clouds":[{"cover":"BKN","base":25000}],"fltCat":"VFR"}]