[{"icaoId":"KDCA","receiptTime":"2025-09-27T01:56:13.953Z","obsTime":1758937920,"reportTime":"2025-09-27T02:00:00.000Z","temp":22.8,"dewp":18.9,"wdir":160,"wspd":4,"visib":"10+","altim":1013,"slp":1012.9,"qcField":4,"metarType":"METAR","rawOb":"METAR KDCA 270152Z 16004KT 10SM FEW075 FEW150 BKN250 23/19 A2991 RMK AO2 SLP129 T02280189","lat":38.8472,"lon":-77.0345,"elev":4,"name":"Washington/Reagan-National Arpt, VA, US","cover":"BKN","clouds":[{"cover":"FEW","base":7500},{"cover":"FEW","base":15000},{"cover":"BKN","base":25000}],"fltCat":"VFR"},{"icaoId":"KDCA","receiptTime":"2025-09-27T00:56:26.394Z","obsTime":1758934320,"reportTime":"2025-09-27T01:00:00.000Z","temp":23.9,"dewp":18.9,"wdir":170,"wspd":5,"visib":"10+","altim":1012.6,"slp":1012.4,"qcField":4,"metarType":"METAR","rawOb":"METAR KDCA 270052Z 17005KT 10SM FEW070 SCT150 SCT250 24/19 A2990 RMK AO2 SLP124 T02390189","lat":38.8472,"lon":-77.0345,"elev":4,"name":"Washington/Reagan-National Arpt, VA, US","cover":"SCT","clouds":[{"cover":"FEW","base":7000},{"cover":"SCT","base":15000},{"cover":"SCT","base":25000}],"fltCat":"VFR"}]