[{"icaoId":"KJFK","receiptTime":"2025-09-27T01:58:08.565Z","obsTime":1758937860,"reportTime":"2025-09-27T02:00:00.000Z","temp":21.7,"dewp":20,"wdir":190,"wspd":5,"visib":"10+","altim":1011.9,"slp":1011.8,"qcField":12,"metarType":"METAR","rawOb":"METAR KJFK 270151Z 19005KT 10SM FEW050 BKN250 22/20 A2988 RMK AO2 SLP118 T02170200 $","lat":40.6392,"lon":-73.7639,"elev":3,"name":"New York/JF Kennedy Intl, NY, US","cover":"BKN","clouds":[{"cover":"FEW","base":5000},{"cover":"BKN","base":25000}],"fltCat":"VFR"},{"icaoId":"KJFK","receiptTime":"2025-09-27T00:58:17.301Z","obsTime":1758934260,"reportTime":"2025-09-27T01:00:00.000Z","temp":21.7,"dewp":20,"wdir":190,"wspd":6,"visib":"10+","altim":1011.6,"slp":1011.5,"qcField":12,"metarType":"METAR","rawOb":"METAR KJFK 270051Z 19006KT 10SM FEW100 BKN250 22/20 A2987 RMK AO2 SLP115 T02170200 $","lat":40.6392,"lon":-73.7639,"elev":3,"name":"New York/JF Kennedy Intl, NY, US","cover":"BKN","clouds":[{"cover":"FEW","base":10000},{"cover":"BKN","base":25000}],"fltCat":"VFR"}]