[{"icaoId":"KPHL","receiptTime":"2025-09-27T01:58:28.222Z","obsTime":1758938040,"reportTime":"2025-09-27T02:00:00.000Z","temp":22.8,"dewp":17.2,"wdir":0,"wspd":0,"visib":"10+","altim":1012.6,"slp":1012.6,"qcField":12,"metarType":"METAR","rawOb":"METAR KPHL 270154Z 00000KT 10SM SCT200 BKN280 23/17 A2990 RMK AO2 SLP126 T02280172 $","lat":39.8733,"lon":-75.2268,"elev":2,"name":"Philadelphia Intl, PA, US","cover":"BKN","clouds":[{"cover":"SCT","base":20000},{"cover":"BKN","base":28000}],"fltCat":"VFR"},{"icaoId":"KPHL","receiptTime":"2025-09-27T00:58:19.906Z","obsTime":1758934440,"reportTime":"2025-09-27T01:00:00.000Z","temp":25,"dewp":15.6,"wdir":260,"wspd":3,"visib":"10+","altim":1011.9,"slp":1011.8,"qcField":12,"metarType":"METAR","rawOb":"METAR KPHL 270054Z 26003KT 10SM SCT210 BKN270 25/16 A2988 RMK AO2 SLP118 T02500156 $","lat":39.8733,"lon":-75.2268,"elev":2,"name":"Philadelphia Intl, PA, US","cover":"BKN","clouds":[{"cover":"SCT","base":21000},{"cover":"BKN","base":27000}],"fltCat":"VFR"}]